STARLINK-34715          
1 64931C 25157AD  26080.72131944 -.00048263  00000+0 -16263-2 0   805
2 64931  53.1581 289.7783 0001285  93.4969 346.6898 15.30223046    19
STARLINK-34705          
1 64932C 25158A   26080.75534722 -.00068798  00000+0 -47787-2 0   801
2 64932  97.6023 305.9200 0001709  72.4707  92.5317 15.05673391    14
STARLINK-34737          
1 64933C 25158B   26080.64006944 -.00029810  00000+0 -20701-2 0   809
2 64933  97.6025 305.8328 0001636  65.9854 254.5590 15.05662667    13
STARLINK-34775          
1 64934C 25158C   26080.63659722 -.00030696  00000+0 -21316-2 0   804
2 64934  97.6025 305.8437 0002121  83.9531 232.7769 15.05663629    12
STARLINK-34726          
1 64935C 25158D   26080.63243056 -.00031857  00000+0 -22121-2 0   809
2 64935  97.6020 305.8940 0002208  70.1087 344.0237 15.05665205    16
STARLINK-34529          
1 64936C 25158E   26080.66506944 -.00049622  00000+0 -34448-2 0   805
2 64936  97.6023 305.8519 0001877  75.9483 349.9638 15.05684634    12
STARLINK-34743          
1 64937C 25158F   26080.69631944 -.00057721  00000+0 -40072-2 0   807
2 64937  97.6026 305.9093 0001630  70.5135 224.6594 15.05687066    18
STARLINK-34730          
1 64938C 25158G   26080.71229167 -.00083533  00000+0 -58014-2 0   806
2 64938  97.6020 306.0092 0002681  89.3614 142.3597 15.05684722    16
STARLINK-34714          
1 64939C 25158H   26080.72618056 -.00075471  00000+0 -52441-2 0   807
2 64939  97.6022 306.0257 0001745  88.8362 203.1780 15.05663276    17
STARLINK-34755          
1 64940C 25158J   26080.64840278 -.00029917  00000+0 -23343-2 0   806
2 64940  97.6020 306.4242 0001930  92.8512  99.0236 15.01265081    19
STARLINK-34740          
1 64941C 25158K   26080.72062500 -.00064419  00000+0 -44740-2 0   800
2 64941  97.6020 305.9856 0002775  71.7463 115.1165 15.05674085    17
STARLINK-34742          
1 64942C 25158L   26080.70673611 -.00052724  00000+0 -36611-2 0   804
2 64942  97.6023 305.9782 0002630  81.2500  60.3582 15.05674285    13
STARLINK-34719          
1 64943C 25158M   26080.75465278 -.00059936  00000+0 -41635-2 0   802
2 64943  97.6020 306.0063 0002423  81.9467 259.2609 15.05665328    11
STARLINK-34373          
1 64944C 25158N   26080.68868056 -.00064078  00000+0 -44500-2 0   803
2 64944  97.6022 305.8705 0002796  63.5757 115.2877 15.05676733    15
STARLINK-34758          
1 64945C 25158P   26080.67062500 -.00051763  00000+0 -35949-2 0   807
2 64945  97.6022 305.9052 0002035  75.4784 125.5595 15.05670355    15
STARLINK-34753          
1 64946C 25158Q   26080.66020833 -.00045469  00000+0 -31576-2 0   808
2 64946  97.6019 305.9027 0002450  79.3804  95.2287 15.05669085    10
STARLINK-34747          
1 64947C 25158R   26080.75465278 -.00058225  00000+0 -40415-2 0   801
2 64947  97.6026 305.9749 0001496  82.1951 183.9156 15.05694583    15
STARLINK-34630          
1 64948C 25158S   26080.68798611 -.00071995  00000+0 -49999-2 0   809
2 64948  97.6023 305.9807 0002775  80.4861 349.5713 15.05680218    19
STARLINK-34689          
1 64949C 25158T   26080.68243056 -.00063980  00000+0 -44431-2 0   809
2 64949  97.6021 305.8512 0002496  84.6032  30.4111 15.05677950    13
STARLINK-34586          
1 64950C 25158U   26080.67131944 -.00034312  00000+0 -23823-2 0   801
2 64950  97.6025 305.8657 0001733  59.1768  55.6003 15.05672607    18
STARLINK-34738          
1 64951C 25158V   26080.75465278 -.00057782  00000+0 -40136-2 0   803
2 64951  97.6021 306.0277 0002699  83.7429 302.4528 15.05666169    16
STARLINK-34744          
1 64952C 25158W   26080.72895833 -.00054561  00000+0 -37883-2 0   802
2 64952  97.6020 305.8777 0002047  71.7833 265.1667 15.05680875    10
STARLINK-34701          
1 64953C 25158X   26080.66298611 -.00028389  00000+0 -19710-2 0   805
2 64953  97.6024 305.9496 0002548  80.9870 198.6174 15.05668497    12
STARLINK-34761          
1 64954C 25158Y   26080.74909722 -.00067642  00000+0 -46985-2 0   806
2 64954  97.6021 305.9115 0002358  84.7368  16.4156 15.05671274    15
STARLINK-34732          
1 64955C 25158Z   26080.76715278 -.00055086  00000+0 -38266-2 0   802
2 64955  97.6022 306.0068 0002003  81.0517 297.8747 15.05662739    16
STARLINK-34617          
1 65015C 25161A   26080.66923611 -.00129600  00000+0 -43675-2 0   809
2 65015  53.1592 238.8077 0001260  94.1528 152.5121 15.30261070    10
STARLINK-34627          
1 65016C 25161B   26080.65118056 -.00095087  00000+0 -32051-2 0   805
2 65016  53.1574 238.7194 0001311  91.7767 142.6185 15.30235889    14
STARLINK-34549          
1 65017C 25161C   26080.69215278 -.00144990  00000+0 -48863-2 0   800
2 65017  53.1595 238.1115 0001132  87.5753 222.0437 15.30267236    18
STARLINK-34623          
1 65018C 25161D   26080.66229167 -.00120370  00000+0 -40566-2 0   808
2 65018  53.1594 238.9087 0001280  90.2439  83.2391 15.30254757    10
STARLINK-34232          
1 65019C 25161E   26080.71784722 -.00127000  00000+0 -42819-2 0   808
2 65019  53.1583 238.5007 0001245  89.9571 105.3693 15.30242722    10
STARLINK-34772          
1 65020C 25161F   26080.63590278 -.00102830  00000+0 -34653-2 0   803
2 65020  53.1570 238.6616 0001201  92.9648 121.2015 15.30245362    14
STARLINK-34778          
1 65021C 25161G   26080.71715278 -.00126770  00000+0 -42736-2 0   802
2 65021  53.1593 238.6075 0001320  93.3286  45.8109 15.30248075    13
STARLINK-34789          
1 65022C 25161H   26080.64701389 -.00067425  00000+0 -22741-2 0   808
2 65022  53.1591 238.8861 0001782  87.3347  48.5584 15.30201012    17
STARLINK-34858          
1 65023C 25161J   26080.66368056 -.00085717  00000+0 -28899-2 0   805
2 65023  53.1577 238.7053 0001058  88.2349 191.8268 15.30224407    16
STARLINK-34773          
1 65024C 25161K   26080.71923611 -.00159560  00000+0 -53799-2 0   801
2 65024  53.1576 238.1698 0001121  90.5166 275.3221 15.30257762    16
STARLINK-34727          
1 65025C 25161L   26080.65395833 -.00106880  00000+0 -36023-2 0   802
2 65025  53.1586 238.3681 0001256  89.4514 328.9867 15.30243936    14
STARLINK-34804          
1 65026C 25161M   26080.75534722 -.00098725  00000+0 -33293-2 0   800
2 65026  53.1575 238.2220 0001195  86.1688   8.1993 15.30222567    13
STARLINK-34655          
1 65027C 25161N   26080.65673611  .00006724  00000+0  22651-3 0   804
2 65027  53.1596 238.9612 0001204  66.7897  58.6365 15.30202134    17
STARLINK-34807          
1 65028C 25161P   26080.65395833 -.00119120  00000+0 -40135-2 0   805
2 65028  53.1591 238.3098 0001284  88.2819 359.1890 15.30260683    11
STARLINK-34731          
1 65029C 25161Q   26080.75881944 -.00090596  00000+0 -30554-2 0   809
2 65029  53.1570 238.1706 0001203  91.8803  39.0772 15.30215978    17
STARLINK-34614          
1 65030C 25161R   26080.63937500 -.00122440  00000+0 -41247-2 0   803
2 65030  53.1595 239.0006 0001249  83.0414 329.9384 15.30268425    15
STARLINK-34677          
1 65031C 25161S   26080.64631944 -.00116010  00000+0 -39088-2 0   804
2 65031  53.1594 238.9218 0001170  73.9586  40.5761 15.30259831    15
STARLINK-34656          
1 65032C 25161T   26080.70812500 -.00140710  00000+0 -47427-2 0   801
2 65032  53.1591 238.6118 0001257  91.4290  15.3994 15.30260102    13
STARLINK-34671          
1 65033C 25161U   26080.69493056 -.00141720  00000+0 -47761-2 0   804
2 65033  53.1595 238.7652 0001323  88.9406 258.6334 15.30264761    11
STARLINK-34610          
1 65034C 25161V   26080.65673611 -.00112030  00000+0 -37752-2 0   809
2 65034  53.1576 238.7007 0001247  95.3704 163.8379 15.30253174    15
STARLINK-34286          
1 65035C 25161W   26080.69840278 -.00124460  00000+0 -41960-2 0   805
2 65035  53.1568 238.4139 0001190  89.4620  85.9306 15.30244896    13
STARLINK-34770          
1 65036C 25161X   26080.67131944 -.00116830  00000+0 -39368-2 0   808
2 65036  53.1586 238.7466 0001221  94.3339 187.0828 15.30257807    16
STARLINK-34776          
1 65037C 25161Y   26080.68868056 -.00138570  00000+0 -46709-2 0   803
2 65037  53.1581 238.6202 0001222  92.6731 307.7047 15.30257635    10
STARLINK-34827          
1 65038C 25161Z   26080.74631944 -.00138920  00000+0 -46840-2 0   800
2 65038  53.1594 237.8904 0001041  84.2297 146.5082 15.30248665    19
STARLINK-34721          
1 65039C 25161AA  26080.71020833 -.00147900  00000+0 -49853-2 0   802
2 65039  53.1593 238.0342 0001100  89.4957 313.8337 15.30261805    17
STARLINK-34819          
1 65040C 25161AB  26080.68243056 -.00135980  00000+0 -45825-2 0   804
2 65040  53.1595 238.8512 0001082  77.5394 183.6935 15.30262880    11
STARLINK-34820          
1 65041C 25161AC  26080.73243056 -.00133280  00000+0 -44943-2 0   802
2 65041  53.1573 238.1627 0001241  74.7203 334.7651 15.30241124    15
STARLINK-34824          
1 65042C 25161AD  26080.66506944 -.00114590  00000+0 -38611-2 0   801
2 65042  53.1579 238.3824 0001191  87.9032 356.8293 15.30256090    18
STARLINK-34788          
1 65056C 25165A   26080.75187500 -.00004885  00000+0 -33948-3 0   807
2 65056  97.6038 159.1149 0000373 118.2731 299.8353 15.05621073    13
STARLINK-34745          
1 65057C 25165B   26080.76229167 -.00010439  00000+0 -72442-3 0   809
2 65057  97.6028 159.0805 0000621 117.1164 252.5000 15.05680874    14
STARLINK-34779          
1 65058C 25165C   26080.66298611  .00068167  00000+0  47335-2 0   800
2 65058  97.6037 159.0340 0000705 106.0086 205.6384 15.05616780    11
STARLINK-34803          
1 65059C 25165D   26080.63381944  .00086046  00000+0  59717-2 0   803
2 65059  97.6032 159.0198 0001543  96.8243  86.8245 15.05627378    10
STARLINK-34717          
1 65060C 25165E   26080.71506944  .00024356  00000+0  16896-2 0   800
2 65060  97.6024 159.1238 0000378 200.3273 123.3759 15.05674843    15
STARLINK-34750          
1 65061C 25165F   26080.65534722  .00068116  00000+0  47279-2 0   800
2 65061  97.6029 159.0953 0000405 103.9560 331.3056 15.05633048    15
